[{"OBJECT_NAME":"STARLINK-3328","OBJECT_ID":"2022-001AF","EPOCH":"2026-03-09T14:02:25.220832","MEAN_MOTION":15.08836107,"ECCENTRICITY":0.0001185,"INCLINATION":53.2182,"RA_OF_ASC_NODE":179.6406,"ARG_OF_PERICENTER":88.7271,"MEAN_ANOMALY":271.3857,"EPHEMERIS_TYPE":0,"CLASSIFICATION_TYPE":"U","NORAD_CAT_ID":50832,"ELEMENT_SET_NO":999,"REV_AT_EPOCH":23025,"BSTAR":5.6005e-5,"MEAN_MOTION_DOT":6.04e-6,"MEAN_MOTION_DDOT":0},{"OBJECT_NAME":"SL-18 R\/B","OBJECT_ID":"2001-007B","EPOCH":"2026-03-09T23:25:11.323200","MEAN_MOTION":15.07301441,"ECCENTRICITY":0.00085554,"INCLINATION":97.6926,"RA_OF_ASC_NODE":87.6817,"ARG_OF_PERICENTER":353.225,"MEAN_ANOMALY":6.886,"EPHEMERIS_TYPE":0,"CLASSIFICATION_TYPE":"U","NORAD_CAT_ID":26703,"ELEMENT_SET_NO":999,"REV_AT_EPOCH":64619,"BSTAR":0.00021543689,"MEAN_MOTION_DOT":3.19e-5,"MEAN_MOTION_DDOT":0}]
